start=new Date('2022-04-10T00:00:00.000Z').valueOf();
sats=[{"PERIOD":"95.440","COUNTRY_CODE":"US","LAUNCH_DATE":"2022-01-06","PERIAPSIS":"538.515","TLE_LINE2":"2 50841  53.2134 117.6183 0001959  37.8976  59.3459 15.08799143  3600","CENTER_NAME":"EARTH","OBJECT_NAME":"STARLINK-3300","MEAN_ELEMENT_THEORY":"SGP4","BSTAR":"0.00304170000000","SITE":"AFETR","NORAD_CAT_ID":"50841","EPHEMERIS_TYPE":"0","TIME_SYSTEM":"UTC","RCS_SIZE":"LARGE","ARG_OF_PERICENTER":"37.8976","OBJECT_TYPE":"PAYLOAD","MEAN_MOTION_DOT":"0.00048400","REV_AT_EPOCH":"360","EPOCH":"2022-04-09T22:00:00.999936","APOAPSIS":"541.226","GP_ID":"200864947","ECCENTRICITY":"0.00019590","DECAY_DATE":null,"REF_FRAME":"TEME","TLE_LINE1":"1 50841U 22001AQ  22099.91667824  .00048400  00000-0  30417-2 0  9991","INCLINATION":"53.2134","RA_OF_ASC_NODE":"117.6183","OBJECT_ID":"2022-001AQ","ELEMENT_SET_NO":"999","FILE":"3395351","MEAN_MOTION":"15.08799143","MEAN_ANOMALY":"59.3459","SEMIMAJOR_AXIS":"6918.005","CLASSIFICATION_TYPE":"U","MEAN_MOTION_DDOT":"0.0000000000000"},{"MEAN_MOTION_DOT":"0.00045674","OBJECT_TYPE":"PAYLOAD","ARG_OF_PERICENTER":"36.6962","RCS_SIZE":"LARGE","TIME_SYSTEM":"UTC","NORAD_CAT_ID":"50842","EPHEMERIS_TYPE":"0","SITE":"AFETR","BSTAR":"0.00287080000000","MEAN_ELEMENT_THEORY":"SGP4","OBJECT_NAME":"STARLINK-3302","CENTER_NAME":"EARTH","TLE_LINE2":"2 50842  53.2155 117.6180 0002091  36.6962 140.5201 15.08821438  3602","PERIAPSIS":"538.356","LAUNCH_DATE":"2022-01-06","COUNTRY_CODE":"US","PERIOD":"95.439","MEAN_MOTION_DDOT":"0.0000000000000","CLASSIFICATION_TYPE":"U","SEMIMAJOR_AXIS":"6917.937","MEAN_ANOMALY":"140.5201","FILE":"3395351","ELEMENT_SET_NO":"999","MEAN_MOTION":"15.08821438","RA_OF_ASC_NODE":"117.6180","OBJECT_ID":"2022-001AR","TLE_LINE1":"1 50842U 22001AR  22099.91667824  .00045674  00000-0  28708-2 0  9992","INCLINATION":"53.2155","REF_FRAME":"TEME","DECAY_DATE":null,"GP_ID":"200865177","ECCENTRICITY":"0.00020910","APOAPSIS":"541.249","EPOCH":"2022-04-09T22:00:00.999936","REV_AT_EPOCH":"360"},{"LAUNCH_DATE":"2022-01-06","PERIAPSIS":"538.462","TLE_LINE2":"2 50843  53.2149 117.6224 0002057  32.3581  24.8775 15.08794165  3603","CENTER_NAME":"EARTH","OBJECT_NAME":"STARLINK-3325","PERIOD":"95.440","COUNTRY_CODE":"US","ARG_OF_PERICENTER":"32.3581","OBJECT_TYPE":"PAYLOAD","MEAN_MOTION_DOT":"0.00051877","MEAN_ELEMENT_THEORY":"SGP4","BSTAR":"0.00325780000000","SITE":"AFETR","NORAD_CAT_ID":"50843","EPHEMERIS_TYPE":"0","RCS_SIZE":"LARGE","TIME_SYSTEM":"UTC","ECCENTRICITY":"0.00020570","GP_ID":"200863952","DECAY_DATE":null,"TLE_LINE1":"1 50843U 22001AS  22099.91667824  .00051877  00000-0  32578-2 0  9995","INCLINATION":"53.2149","REF_FRAME":"TEME","REV_AT_EPOCH":"360","EPOCH":"2022-04-09T22:00:00.999936","APOAPSIS":"541.309","SEMIMAJOR_AXIS":"6918.020","MEAN_MOTION_DDOT":"0.0000000000000","CLASSIFICATION_TYPE":"U","OBJECT_ID":"2022-001AS","RA_OF_ASC_NODE":"117.6224","ELEMENT_SET_NO":"999","FILE":"3395351","MEAN_MOTION":"15.08794165","MEAN_ANOMALY":"24.8775"},{"RA_OF_ASC_NODE":"117.6053","OBJECT_ID":"2022-001AT","MEAN_ANOMALY":"199.8128","FILE":"3395351","ELEMENT_SET_NO":"999","MEAN_MOTION":"15.08804077","SEMIMAJOR_AXIS":"6917.990","MEAN_MOTION_DDOT":"0.0000000000000","CLASSIFICATION_TYPE":"U","REV_AT_EPOCH":"360","EPOCH":"2022-04-09T22:00:00.999936","APOAPSIS":"541.254","ECCENTRICITY":"0.00020220","GP_ID":"200865206","DECAY_DATE":null,"INCLINATION":"53.2176","TLE_LINE1":"1 50844U 22001AT  22099.91667824  .00048151  00000-0  30259-2 0  9991","REF_FRAME":"TEME","MEAN_ELEMENT_THEORY":"SGP4","BSTAR":"0.00302590000000","SITE":"AFETR","NORAD_CAT_ID":"50844","EPHEMERIS_TYPE":"0","RCS_SIZE":"LARGE","TIME_SYSTEM":"UTC","ARG_OF_PERICENTER":"37.4107","OBJECT_TYPE":"PAYLOAD","MEAN_MOTION_DOT":"0.00048151","PERIOD":"95.440","COUNTRY_CODE":"US","LAUNCH_DATE":"2022-01-06","PERIAPSIS":"538.456","TLE_LINE2":"2 50844  53.2176 117.6053 0002022  37.4107 199.8128 15.08804077  3605","CENTER_NAME":"EARTH","OBJECT_NAME":"STARLINK-3326"},{"INCLINATION":"53.2162","TLE_LINE1":"1 50845U 22001AU  22099.91667824  .00054889  00000-0  34423-2 0  9994","REF_FRAME":"TEME","DECAY_DATE":null,"ECCENTRICITY":"0.00015970","GP_ID":"200865447","APOAPSIS":"540.919","EPOCH":"2022-04-09T22:00:00.999936","REV_AT_EPOCH":"361","MEAN_MOTION_DDOT":"0.0000000000000","CLASSIFICATION_TYPE":"U","SEMIMAJOR_AXIS":"6917.949","ELEMENT_SET_NO":"999","FILE":"3395351","MEAN_ANOMALY":"294.5842","MEAN_MOTION":"15.08817494","RA_OF_ASC_NODE":"117.6035","OBJECT_ID":"2022-001AU","OBJECT_NAME":"STARLINK-3230","TLE_LINE2":"2 50845  53.2162 117.6035 0001597  62.6305 294.5842 15.08817494  3611","PERIAPSIS":"538.709","CENTER_NAME":"EARTH","LAUNCH_DATE":"2022-01-06","COUNTRY_CODE":"US","PERIOD":"95.439","OBJECT_TYPE":"PAYLOAD","MEAN_MOTION_DOT":"0.00054889","ARG_OF_PERICENTER":"62.6305","RCS_SIZE":"LARGE","TIME_SYSTEM":"UTC","EPHEMERIS_TYPE":"0","NORAD_CAT_ID":"50845","SITE":"AFETR","MEAN_ELEMENT_THEORY":"SGP4","BSTAR":"0.00344230000000"},{"OBJECT_ID":"2022-001AV","RA_OF_ASC_NODE":"117.6051","ELEMENT_SET_NO":"999","FILE":"3395351","MEAN_MOTION":"15.08816166","MEAN_ANOMALY":"219.1595","SEMIMAJOR_AXIS":"6917.953","CLASSIFICATION_TYPE":"U","MEAN_MOTION_DDOT":"0.0000000000000","REV_AT_EPOCH":"360","EPOCH":"2022-04-09T22:00:00.999936","APOAPSIS":"541.211","ECCENTRICITY":"0.00020130","GP_ID":"200865677","DECAY_DATE":null,"INCLINATION":"53.2173","TLE_LINE1":"1 50846U 22001AV  22099.91667824  .00048748  00000-0  30619-2 0  9995","REF_FRAME":"TEME","MEAN_ELEMENT_THEORY":"SGP4","BSTAR":"0.00306190000000","SITE":"AFETR","NORAD_CAT_ID":"50846","EPHEMERIS_TYPE":"0","TIME_SYSTEM":"UTC","RCS_SIZE":"LARGE","ARG_OF_PERICENTER":"38.0640","OBJECT_TYPE":"PAYLOAD","MEAN_MOTION_DOT":"0.00048748","PERIOD":"95.439","COUNTRY_CODE":"US","LAUNCH_DATE":"2022-01-06","PERIAPSIS":"538.426","TLE_LINE2":"2 50846  53.2173 117.6051 0002013  38.0640 219.1595 15.08816166  3607","CENTER_NAME":"EARTH","OBJECT_NAME":"STARLINK-3308"},{"MEAN_MOTION":"15.08815776","FILE":"3395351","ELEMENT_SET_NO":"999","MEAN_ANOMALY":"65.9451","OBJECT_ID":"2022-001AW","RA_OF_ASC_NODE":"117.6185","SEMIMAJOR_AXIS":"6917.954","CLASSIFICATION_TYPE":"U","MEAN_MOTION_DDOT":"0.0000000000000","EPOCH":"2022-04-09T22:00:00.999936","REV_AT_EPOCH":"360","APOAPSIS":"541.245","DECAY_DATE":null,"GP_ID":"200864452","ECCENTRICITY":"0.00020600","TLE_LINE1":"1 50847U 22001AW  22099.91667824  .00039491  00000-0  24871-2 0  9994","INCLINATION":"53.2131","REF_FRAME":"TEME","SITE":"AFETR","BSTAR":"0.00248710000000","MEAN_ELEMENT_THEORY":"SGP4","RCS_SIZE":"LARGE","TIME_SYSTEM":"UTC","NORAD_CAT_ID":"50847","EPHEMERIS_TYPE":"0","ARG_OF_PERICENTER":"51.2882","MEAN_MOTION_DOT":"0.00039491","OBJECT_TYPE":"PAYLOAD","PERIOD":"95.439","COUNTRY_CODE":"US","CENTER_NAME":"EARTH","PERIAPSIS":"538.394","TLE_LINE2":"2 50847  53.2131 117.6185 0002060  51.2882  65.9451 15.08815776  3601","LAUNCH_DATE":"2022-01-06","OBJECT_NAME":"STARLINK-3319"},{"ARG_OF_PERICENTER":"35.8632","MEAN_MOTION_DOT":"0.00013153","OBJECT_TYPE":"PAYLOAD","BSTAR":"0.00084312000000","MEAN_ELEMENT_THEORY":"SGP4","SITE":"AFETR","EPHEMERIS_TYPE":"0","NORAD_CAT_ID":"50848","RCS_SIZE":"LARGE","TIME_SYSTEM":"UTC","LAUNCH_DATE":"2022-01-06","CENTER_NAME":"EARTH","PERIAPSIS":"538.306","TLE_LINE2":"2 50848  53.2170 117.6044 0002117  35.8632 241.3653 15.08831865  3604","OBJECT_NAME":"STARLINK-3315","PERIOD":"95.438","COUNTRY_CODE":"US","SEMIMAJOR_AXIS":"6917.905","CLASSIFICATION_TYPE":"U","MEAN_MOTION_DDOT":"0.0000000000000","RA_OF_ASC_NODE":"117.6044","OBJECT_ID":"2022-001AX","MEAN_MOTION":"15.08831865","FILE":"3395351","ELEMENT_SET_NO":"999","MEAN_ANOMALY":"241.3653","GP_ID":"200864707","ECCENTRICITY":"0.00021170","DECAY_DATE":null,"REF_FRAME":"TEME","TLE_LINE1":"1 50848U 22001AX  22099.91667824  .00013153  00000-0  84312-3 0  9999","INCLINATION":"53.2170","REV_AT_EPOCH":"360","EPOCH":"2022-04-09T22:00:00.999936","APOAPSIS":"541.235"},{"APOAPSIS":"541.235","EPOCH":"2022-04-09T22:00:00.999936","REV_AT_EPOCH":"360","REF_FRAME":"TEME","TLE_LINE1":"1 50849U 22001AY  22099.91667824  .00046861  00000-0  29444-2 0  9996","INCLINATION":"53.2173","DECAY_DATE":null,"ECCENTRICITY":"0.00020720","GP_ID":"200864948","FILE":"3395351","ELEMENT_SET_NO":"999","MEAN_MOTION":"15.08821602","MEAN_ANOMALY":"183.5556","RA_OF_ASC_NODE":"117.6058","OBJECT_ID":"2022-001AY","MEAN_MOTION_DDOT":"0.0000000000000","CLASSIFICATION_TYPE":"U","SEMIMAJOR_AXIS":"6917.937","COUNTRY_CODE":"US","PERIOD":"95.439","OBJECT_NAME":"STARLINK-3311","CENTER_NAME":"EARTH","TLE_LINE2":"2 50849  53.2173 117.6058 0002072  33.6484 183.5556 15.08821602  3601","PERIAPSIS":"538.368","LAUNCH_DATE":"2022-01-06","RCS_SIZE":"LARGE","TIME_SYSTEM":"UTC","EPHEMERIS_TYPE":"0","NORAD_CAT_ID":"50849","SITE":"AFETR","BSTAR":"0.00294440000000","MEAN_ELEMENT_THEORY":"SGP4","MEAN_MOTION_DOT":"0.00046861","OBJECT_TYPE":"PAYLOAD","ARG_OF_PERICENTER":"33.6484"},{"SEMIMAJOR_AXIS":"6728.079","MEAN_MOTION_DDOT":"0.0000000000000","CLASSIFICATION_TYPE":"U","ELEMENT_SET_NO":"999","FILE":"3395351","MEAN_MOTION":"15.73135697","MEAN_ANOMALY":"61.2456","OBJECT_ID":"2022-001AZ","RA_OF_ASC_NODE":"98.6767","DECAY_DATE":null,"ECCENTRICITY":"0.00062480","GP_ID":"200865178","TLE_LINE1":"1 50850U 22001AZ  22099.91667824  .00126161  00000-0  89153-3 0  9994","INCLINATION":"53.2152","REF_FRAME":"TEME","EPOCH":"2022-04-09T22:00:00.999936","REV_AT_EPOCH":"370","APOAPSIS":"354.147","ARG_OF_PERICENTER":"294.7132","MEAN_MOTION_DOT":"0.00126161","OBJECT_TYPE":"PAYLOAD","SITE":"AFETR","BSTAR":"0.00089153000000","MEAN_ELEMENT_THEORY":"SGP4","RCS_SIZE":"LARGE","TIME_SYSTEM":"UTC","EPHEMERIS_TYPE":"0","NORAD_CAT_ID":"50850","CENTER_NAME":"EARTH","PERIAPSIS":"345.740","TLE_LINE2":"2 50850  53.2152  98.6767 0006248 294.7132  61.2456 15.73135697  3700","LAUNCH_DATE":"2022-01-06","OBJECT_NAME":"STARLINK-3312","PERIOD":"91.537","COUNTRY_CODE":"US"}];
